CICERO 6                
1 42793U 17036AE  24110.05042197  .00171216  00000+0  12960-2 0  9995
2 42793  97.0973 146.8428 0003812  97.8848 262.2849 15.71878707380457
CORVUS BC2              
1 42846U 17042X   24110.51867586  .00007665  00000+0  66917-3 0  9997
2 42846  97.3748 298.9134 0007391 252.2316 107.8100 14.97053461368667
CORVUS BC1              
1 42847U 17042Y   24110.48568707  .00008405  00000+0  73031-3 0  9995
2 42847  97.3762 299.2765 0006468 251.7512 108.3007 14.97216042368673
MIRATA                  
1 43015U 17073C   24110.21792833  .00034789  00000+0  17285-2 0  9999
2 43015  97.6049 355.7486 0180213 101.9651 260.1839 15.04421435347457
MAKERSAT 0              
1 43016U 17073D   24110.21657565  .00021200  00000+0  12363-2 0  9998
2 43016  97.5899 350.8931 0203858 120.5037 241.6486 14.96079241347082
CORVUS BC3              
1 43118U 18004H   24110.20955576  .00167914  00000+0  13110-2 0  9992
2 43118  97.2897 194.0096 0003009 125.2895 234.8649 15.71148262349609
GOMX-4B                 
1 43196U 18015E   24110.47454031  .00075297  00000+0  10747-2 0  9994
2 43196  97.6060 279.9304 0009646 172.3677 187.7725 15.55974447346376
GOMX-4A                 
1 43197U 18015F   24110.51442118  .00115323  00000+0  12237-2 0  9994
2 43197  97.5978 284.2455 0008053 166.0060 194.1423 15.63671164346676
CICERO 10               
1 43690U 18088A   24109.37662815  .00133294  00000+0  14148-2 0  9992
2 43690  85.0172 222.1080 0007960 167.3328 192.8138 15.63608627302791
PROXIMA I               
1 43694U 18088E   24110.32008960  .00360300  00000+0  16974-2 0  9997
2 43694  85.0079 214.7247 0002402 182.8421 177.2841 15.82178877303435
PROXIMA II              
1 43696U 18088G   24110.02503349  .00321533  00000+0  16352-2 0  9992
2 43696  85.0091 215.1071 0002365 179.0839 181.0439 15.80605318303372
SIRION PATHFINDER-2     
1 43759U 18099B   24110.15013458  .00009686  00000+0  74362-3 0  9993
2 43759  97.5376 167.9719 0014725 126.1519 234.1070 15.01885898293645
CORVUS BC4              
1 43767U 18099K   24109.89104869  .00009479  00000+0  74129-3 0  9999
2 43767  97.5217 165.0989 0008713 197.9749 162.1168 15.01244318293494
MOVE-II                 
1 43780U 18099Y   24110.15605199  .00030046  00000+0  17035-2 0  9993
2 43780  97.5268 173.7967 0008137 171.7197 188.4170 15.12898792293996
SPACEBEE-7              
1 43816U 18099BL  24110.12028896  .00025626  00000+0  15970-2 0  9997
2 43816  97.5542 174.6086 0011747 130.4624 229.7631 15.09475334293496
SPACEBEE-6              
1 43818U 18099BN  24109.75340759  .00045813  00000+0  21972-2 0  9990
2 43818  97.5459 178.6917 0010723 138.9846 221.2196 15.18690456293873
SHIELDS 1               
1 43850U 18104B   24109.60888333  .00018520  00000+0  53143-3 0  9993
2 43850  85.0237 323.5033 0009211 301.5275  58.5074 15.35698223297014
ZACUBE-2                
1 43907U 18111AH  24110.10599522  .01317697  10913-2  16672-2 0  9990
2 43907  97.0664 353.8212 0008424 171.6273 188.5152 16.07694588296917
SONATE                  
1 44400U 19038Q   24110.51524197  .00036998  00000+0  12210-2 0  9997
2 44400  97.7124 102.1185 0014957 320.4428  39.5719 15.31217205265094
LUCKY-7                 
1 44406U 19038W   24110.49865553  .00060765  00000+0  15630-2 0  9992
2 44406  97.7038 105.4441 0011279 304.4069  55.6109 15.38983829265329
BEESAT 9                
1 44412U 19038AC  24110.52018146  .00277227  00000+0  23994-2 0  9996
2 44412  97.6821 112.9388 0003672 223.9783 136.1185 15.68310594265554
JAISAT-1                
1 44419U 19038F   24110.48173549  .00258852  00000+0  23712-2 0  9998
2 44419  97.6803 113.9049 0003390 229.3310 130.7656 15.66960161265922
DUCHIFAT-3              
1 44854U 19089C   24110.21906992  .00026375  00000+0  14188-2 0  9994
2 44854  36.9589  46.4545 0009532 311.1547  48.8376 15.14042247239253
M2 PATHFINDER           
1 45727U 20037E   24110.02658335  .00006736  00000+0  59646-3 0  9991
2 45727  97.7740 286.8053 0010329 325.8339  34.2217 14.96549763207092
NETSAT-4                
1 46504U 20068U   24109.87175531  .00018481  00000+0  10314-2 0  9990
2 46504  97.8012  65.4947 0009336 192.2111 167.8895 15.13566062195195
NETSAT-3                
1 46505U 20068V   24109.83564004  .00017623  00000+0  99734-3 0  9995
2 46505  97.7976  65.0352 0008417 202.0277 158.0593 15.13083881195181
NETSAT-1                
1 46506U 20068W   24109.82629476  .00014452  00000+0  84986-3 0  9990
2 46506  97.8004  64.6243 0006879 213.6378 146.4416 15.11758394195157
NETSAT-2                
1 46507U 20068X   24109.81934509  .00019091  00000+0  10685-2 0  9994
2 46507  97.7996  65.0927 0005949 215.9906 144.0925 15.13478573195137
WILDTRACKCUBE-SIMBA     
1 47941U 21022K   24110.53707368  .00028125  00000+0  13247-2 0  9995
2 47941  97.4674   7.8909 0015791 357.5345   2.5809 15.19373007169558
BEESAT-6                
1 47957U 21022AB  24107.69546960  .00179512  00000+0  33717-2 0  9995
2 47957  97.4530  13.2532 0006217  13.0151 347.1258 15.47916965169486
SMOG-1                  
1 47964U 21022AJ  24110.31411335  .00154859  00000+0  28575-2 0  9996
2 47964  97.4693  19.0073 0004111 316.3371  43.7554 15.48531230169074
BCCSAT-1                
1 48041U 21022AK  24109.70495433  .00078128  00000+0  19893-2 0  9992
2 48041  97.4688  15.2629 0005378 327.1351  32.9559 15.39266463168756
BEESAT-5                
1 48083U 21022AM  24109.96257927  .00205233  00000+0  29971-2 0  9997
2 48083  97.4289  16.5420 0003342 357.0877   3.0356 15.54928288169073
BEESAT-7                
1 48084U 21022AN  24110.25543050  .00141912  00000+0  28704-2 0  9993
2 48084  97.4649  16.1583 0006132 328.4296  31.6584 15.45904369168610
BEESAT-8                
1 48085U 21022AP  24109.66746879  .00042741  00000+0  15409-2 0  9999
2 48085  97.4795  11.2996 0012224 350.2884   9.8117 15.28340393168770
LEDSAT                  
1 49069U 21073D   24110.14690839  .00029960  00000+0  12919-2 0  9998
2 49069  97.4413 181.7641 0021524 130.9144 229.3960 15.22288947147463
SITRO-AIS 5 (KATYS)     
1 57176U 23091L   24110.49691861  .00016161  00000+0  10721-2 0  9990
2 57176  97.6190 163.2160 0016941 324.9475  35.0636 15.07216777 44659
SITRO-AIS 6 (CHIRKIN)   
1 57192U 23091AC  24110.48444876  .00015181  00000+0  10058-2 0  9993
2 57192  97.6195 163.2246 0016643 325.4029  34.6114 15.07282159 44650
SITRO-AIS 8 (ANOKHIN)   
1 57193U 23091AD  24110.46319468  .00015765  00000+0  10379-2 0  9994
2 57193  97.6193 163.2465 0016208 327.2417  32.7804 15.07513243 44656
SITRO-AIS 7 (FARTUSHNIY)
1 57194U 23091AE  24110.48783853  .00015461  00000+0  10254-2 0  9995
2 57194  97.6192 163.2146 0016539 325.7525  34.2635 15.07242864 44659
SITRO-AIS 10 (BURDAEV)  
1 57199U 23091AK  24110.43544258  .00016532  00000+0  10411-2 0  9994
2 57199  97.6202 163.9502 0011330 314.8002  45.2305 15.09193824 44695
SITRO-AIS 9 (SHCHUKIN)  
1 57201U 23091AM  24110.49960892  .00018220  00000+0  11465-2 0  9996
2 57201  97.6198 163.9994 0011292 314.5405  45.4901 15.09201046 44701
SITRO-AIS 12 (SMIRENNIY)
1 57204U 23091AQ  24110.40293878  .00015144  00000+0  94975-3 0  9993
2 57204  97.6212 164.0114 0010905 309.4490  50.5773 15.09370435 44695
SITRO-AIS 11 (SHEFFER)  
1 57208U 23091AU  24110.52431570  .00018013  00000+0  11261-2 0  9997
2 57208  97.6207 164.1489 0010824 308.9045  51.1217 15.09448256 44719
SITRO-AIS B             
1 59052U 24039B   24110.48537907  .00040208  00000+0  16194-2 0  9996
2 59052  97.3880  73.1148 0021875  68.1042 292.2518 15.24521030  7645
SITRO-AIS C             
1 59053U 24039C   24110.55056767  .00041472  00000+0  16679-2 0  9997
2 59053  97.3878  73.1782 0021973  68.5739 291.7840 15.24559460  7643
SITRO-AIS 31            
1 59054U 24039D   24110.54785761  .00041020  00000+0  16457-2 0  9993
2 59054  97.3878  73.1818 0021802  68.5347 291.8213 15.24647465  7660
SITRO-AIS 33            
1 59055U 24039E   24110.54460140  .00041128  00000+0  16448-2 0  9994
2 59055  97.3879  73.1879 0021560  69.1897 291.1647 15.24758523  7658
SITRO-AIS F             
1 59056U 24039F   24110.54274064  .00040911  00000+0  16345-2 0  9998
2 59056  97.3879  73.1897 0021375  69.2983 291.0543 15.24796581  7650
SITRO-AIS G             
1 59057U 24039G   24110.54464107  .00040503  00000+0  16216-2 0  9992
2 59057  97.3879  73.1874 0021305  69.4415 290.9106 15.24730210  7651
SITRO-AIS 35            
1 59058U 24039H   24110.54349391  .00041032  00000+0  16400-2 0  9993
2 59058  97.3879  73.1900 0021490  69.2606 291.0932 15.24779755  7653
SITRO-AIS 36            
1 59059U 24039J   24110.54059319  .00041499  00000+0  16546-2 0  9990
2 59059  97.3879  73.1930 0021058  69.4522 290.8972 15.24867919  7657
SITRO-AIS 49            
1 59060U 24039K   24110.53987194  .00041767  00000+0  16654-2 0  9990
2 59060  97.3879  73.1936 0021031  69.2689 291.0800 15.24864691  7655
SITRO-AIS 50            
1 59061U 24039L   24110.53757402  .00038043  00000+0  15126-2 0  9994
2 59061  97.3878  73.1967 0021046  69.4836 290.8658 15.24981695  7653
SITRO-AIS 51            
1 59062U 24039M   24110.53669157  .00040047  00000+0  15910-2 0  9992
2 59062  97.3878  73.1981 0020935  69.3791 290.9689 15.24998940  7651
SITRO-AIS 52            
1 59063U 24039N   24110.53421790  .00042380  00000+0  16791-2 0  9992
2 59063  97.3877  73.2013 0020742  69.2607 291.0851 15.25080384  7657
SITRO-AIS 25            
1 59066U 24039R   24110.54902386  .00008514  00000+0  82958-3 0  9991
2 59066  95.3993  57.6848 0174016 183.7678 176.2245 14.81852408  7424
SITRO-AIS 26            
1 59067U 24039S   24110.54840321  .00008368  00000+0  81565-3 0  9992
2 59067  95.3992  57.6850 0173806 183.8005 176.1908 14.81864319  7427
SITRO-AIS 27            
1 59068U 24039T   24110.54467898  .00008633  00000+0  83928-3 0  9997
2 59068  95.3995  57.6901 0173572 183.6775 176.3182 14.81984830  7427
